{"type": "FeatureCollection", "features": [ {"type": "Feature", "properties": {"norad_id": 66923, "name": "HULIANWANG DIGUI-113", "group": "last-30-days", "lat": 7.4407302243542315, "lon": -69.893305173489, "alt_km": 874.7481790784914, "timestamp": "2025-12-12T22:42:11.308564+00:00", "meta": {"OBJECT_NAME": "HULIANWANG DIGUI-113", "OBJECT_ID": "2025-285J", "EPOCH": "2025-12-12T08:15:02.286144", "MEAN_MOTION": 14.06056256, "ECCENTRICITY": 0.0005401, "INCLINATION": 50.008, "RA_OF_ASC_NODE": 118.8627, "ARG_OF_PERICENTER": 294.9369, "MEAN_ANOMALY": 65.0975, "EPHEMERIS_TYPE": 0, "CLASSIFICATION_TYPE": "U", "NORAD_CAT_ID": 66923, "ELEMENT_SET_NO": 999, "REV_AT_EPOCH": 85, "BSTAR": 0.00020190093, "MEAN_MOTION_DOT": 1.81e-06, "MEAN_MOTION_DDOT": 0}, "tle": {"line1": "1 66923U 25285J   25346.34377646  .00000181  00000+0  20190-3 0  9992", "line2": "2 66923  50.0080 118.8627 0005401 294.9369  65.0975 14.06056256   856"}}, "geometry": {"type": "Point", "coordinates": [-69.893305173489, 7.4407302243542315]}}, {"type": "Feature", "properties": {"norad_id": 66924, "name": "CZ-8A R/B", "group": "last-30-days", "lat": 20.444177142070515, "lon": 133.51060303385873, "alt_km": 772.1257495644231, "timestamp": "2025-12-12T22:42:11.308575+00:00", "meta": {"OBJECT_NAME": "CZ-8A R/B", "OBJECT_ID": "2025-285K", "EPOCH": "2025-12-11T18:04:29.351136", "MEAN_MOTION": 14.3050121, "ECCENTRICITY": 0.01193225, "INCLINATION": 50.0063, "RA_OF_ASC_NODE": 120.3543, "ARG_OF_PERICENTER": 103.2592, "MEAN_ANOMALY": 258.1664, "EPHEMERIS_TYPE": 0, "CLASSIFICATION_TYPE": "U", "NORAD_CAT_ID": 66924, "ELEMENT_SET_NO": 999, "REV_AT_EPOCH": 78, "BSTAR": 9.6804415e-05, "MEAN_MOTION_DOT": 1.07e-06, "MEAN_MOTION_DDOT": 0}, "tle": {"line1": "1 66924U 25285K   25345.75311749  .00000107  00000+0  96804-4 0  9993", "line2": "2 66924  50.0063 120.3543 0119322 103.2592 258.1664 14.30501210   785"}}, "geometry": {"type": "Point", "coordinates": [133.51060303385873, 20.444177142070515]}}, {"type": "Feature", "properties": {"norad_id": 66953, "name": "HULIANWANG DIGUI-114", "group": "last-30-days", "lat": 52.92793117199588, "lon": 161.42983502451406, "alt_km": 998.0149211045637, "timestamp": "2025-12-12T22:42:11.308585+00:00", "meta": {"OBJECT_NAME": "HULIANWANG DIGUI-114", "OBJECT_ID": "2025-287A", "EPOCH": "2025-12-11T05:43:48.442368", "MEAN_MOTION": 13.68688345, "ECCENTRICITY": 0.00085506, "INCLINATION": 86.4966, "RA_OF_ASC_NODE": 346.7027, "ARG_OF_PERICENTER": 209.4482, "MEAN_ANOMALY": 150.6197, "EPHEMERIS_TYPE": 0, "CLASSIFICATION_TYPE": "U", "NORAD_CAT_ID": 66953, "ELEMENT_SET_NO": 999, "REV_AT_EPOCH": 32, "BSTAR": 1.3583638e-05, "MEAN_MOTION_DOT": 2.8e-07, "MEAN_MOTION_DDOT": 0}, "tle": {"line1": "1 66953U 25287A   25345.23875512  .00000028  00000+0  13584-4 0  9999", "line2": "2 66953  86.4966 346.7027 0008550 209.4482 150.6197 13.68688345   322"}}, "geometry": {"type": "Point", "coordinates": [161.42983502451406, 52.92793117199588]}}, {"type": "Feature", "properties": {"norad_id": 66954, "name": "HULIANWANG DIGUI-115", "group": "last-30-days", "lat": 51.49770250397462, "lon": 161.6679532165204, "alt_km": 997.5907182924511, "timestamp": "2025-12-12T22:42:11.308595+00:00", "meta": {"OBJECT_NAME": "HULIANWANG DIGUI-115", "OBJECT_ID": "2025-287B", "EPOCH": "2025-12-12T06:17:16.979712", "MEAN_MOTION": 13.68791396, "ECCENTRICITY": 0.00085357, "INCLINATION": 86.4972, "RA_OF_ASC_NODE": 346.333, "ARG_OF_PERICENTER": 205.6175, "MEAN_ANOMALY": 154.4563, "EPHEMERIS_TYPE": 0, "CLASSIFICATION_TYPE": "U", "NORAD_CAT_ID": 66954, "ELEMENT_SET_NO": 999, "REV_AT_EPOCH": 46, "BSTAR": 2.0856965e-05, "MEAN_MOTION_DOT": 3.4e-07, "MEAN_MOTION_DDOT": 0}, "tle": {"line1": "1 66954U 25287B   25346.26200208  .00000034  00000+0  20857-4 0  9996", "line2": "2 66954  86.4972 346.3330 0008535 205.6175 154.4563 13.68791396   468"}}, "geometry": {"type": "Point", "coordinates": [161.6679532165204, 51.49770250397462]}}, {"type": "Feature", "properties": {"norad_id": 66955, "name": "HULIANWANG DIGUI-116", "group": "last-30-days", "lat": 49.87061140265836, "lon": 161.90114398175848, "alt_km": 996.780900939475, "timestamp": "2025-12-12T22:42:11.308608+00:00", "meta": {"OBJECT_NAME": "HULIANWANG DIGUI-116", "OBJECT_ID": "2025-287C", "EPOCH": "2025-12-12T06:16:53.560128", "MEAN_MOTION": 13.68903008, "ECCENTRICITY": 0.00079376, "INCLINATION": 86.4908, "RA_OF_ASC_NODE": 346.3254, "ARG_OF_PERICENTER": 199.624, "MEAN_ANOMALY": 160.4615, "EPHEMERIS_TYPE": 0, "CLASSIFICATION_TYPE": "U", "NORAD_CAT_ID": 66955, "ELEMENT_SET_NO": 999, "REV_AT_EPOCH": 46, "BSTAR": 2.095305e-05, "MEAN_MOTION_DOT": 3.5e-07, "MEAN_MOTION_DDOT": 0}, "tle": {"line1": "1 66955U 25287C   25346.26173102  .00000035  00000+0  20953-4 0  9997", "line2": "2 66955  86.4908 346.3254 0007937 199.6240 160.4615 13.68903008   463"}}, "geometry": {"type": "Point", "coordinates": [161.90114398175848, 49.87061140265836]}}, {"type": "Feature", "properties": {"norad_id": 66956, "name": "HULIANWANG DIGUI-117", "group": "last-30-days", "lat": 48.21413905203465, "lon": 162.15392243724645, "alt_km": 996.1552534174452, "timestamp": "2025-12-12T22:42:11.308618+00:00", "meta": {"OBJECT_NAME": "HULIANWANG DIGUI-117", "OBJECT_ID": "2025-287D", "EPOCH": "2025-12-11T19:45:00.614592", "MEAN_MOTION": 13.6901764, "ECCENTRICITY": 0.00072845, "INCLINATION": 86.4968, "RA_OF_ASC_NODE": 346.4938, "ARG_OF_PERICENTER": 195.1574, "MEAN_ANOMALY": 164.9368, "EPHEMERIS_TYPE": 0, "CLASSIFICATION_TYPE": "U", "NORAD_CAT_ID": 66956, "ELEMENT_SET_NO": 999, "REV_AT_EPOCH": 40, "BSTAR": 1.8810541e-05, "MEAN_MOTION_DOT": 3.3e-07, "MEAN_MOTION_DDOT": 0}, "tle": {"line1": "1 66956U 25287D   25345.82292378  .00000033  00000+0  18811-4 0  9994", "line2": "2 66956  86.4968 346.4938 0007284 195.1574 164.9368 13.69017640   403"}}, "geometry": {"type": "Point", "coordinates": [162.15392243724645, 48.21413905203465]}}, {"type": "Feature", "properties": {"norad_id": 66957, "name": "HULIANWANG DIGUI-118", "group": "last-30-days", "lat": 46.55554000906662, "lon": 162.36768182361448, "alt_km": 995.6913237838571, "timestamp": "2025-12-12T22:42:11.308628+00:00", "meta": {"OBJECT_NAME": "HULIANWANG DIGUI-118", "OBJECT_ID": "2025-287E", "EPOCH": "2025-12-10T19:11:19.771296", "MEAN_MOTION": 13.69138079, "ECCENTRICITY": 0.00073806, "INCLINATION": 86.4949, "RA_OF_ASC_NODE": 346.8611, "ARG_OF_PERICENTER": 196.974, "MEAN_ANOMALY": 163.1173, "EPHEMERIS_TYPE": 0, "CLASSIFICATION_TYPE": "U", "NORAD_CAT_ID": 66957, "ELEMENT_SET_NO": 999, "REV_AT_EPOCH": 26, "BSTAR": -0.00019717069, "MEAN_MOTION_DOT": -1.54e-06, "MEAN_MOTION_DDOT": 0}, "tle": {"line1": "1 66957U 25287E   25344.79953439 -.00000154  00000+0 -19717-3 0  9993", "line2": "2 66957  86.4949 346.8611 0007380 196.9740 163.1173 13.69138079   265"}}, "geometry": {"type": "Point", "coordinates": [162.36768182361448, 46.55554000906662]}}, {"type": "Feature", "properties": {"norad_id": 66958, "name": "CZ-6A R/B", "group": "last-30-days", "lat": 38.16973007715216, "lon": 163.26958201982853, "alt_km": 848.5807351904477, "timestamp": "2025-12-12T22:42:11.308638+00:00", "meta": {"OBJECT_NAME": "CZ-6A R/B", "OBJECT_ID": "2025-287F", "EPOCH": "2025-12-12T01:22:36.436224", "MEAN_MOTION": 13.94919215, "ECCENTRICITY": 0.01072259, "INCLINATION": 86.5058, "RA_OF_ASC_NODE": 346.3601, "ARG_OF_PERICENTER": 104.2054, "MEAN_ANOMALY": 257.106, "EPHEMERIS_TYPE": 0, "CLASSIFICATION_TYPE": "U", "NORAD_CAT_ID": 66958, "ELEMENT_SET_NO": 999, "REV_AT_EPOCH": 44, "BSTAR": 0.00019796978, "MEAN_MOTION_DOT": 2.98e-06, "MEAN_MOTION_DDOT": 0}, "tle": {"line1": "1 66958U 25287F   25346.05736616  .00000298  00000+0  19797-3 0  9996", "line2": "2 66958  86.5058 346.3601 0107225 104.2054 257.1060 13.94919215   447"}}, "geometry": {"type": "Point", "coordinates": [163.26958201982853, 38.16973007715216]}}, {"type": "Feature", "properties": {"norad_id": 66988, "name": "YAOGAN-47", "group": "last-30-days", "lat": 43.88655920941392, "lon": 44.76056970935932, "alt_km": 492.21871053359064, "timestamp": "2025-12-12T22:42:11.308648+00:00", "meta": {"OBJECT_NAME": "YAOGAN-47", "OBJECT_ID": "2025-289A", "EPOCH": "2025-12-11T14:58:29.248032", "MEAN_MOTION": 15.23120362, "ECCENTRICITY": 8.584e-05, "INCLINATION": 97.5268, "RA_OF_ASC_NODE": 50.7421, "ARG_OF_PERICENTER": 73.685, "MEAN_ANOMALY": 286.448, "EPHEMERIS_TYPE": 0, "CLASSIFICATION_TYPE": "U", "NORAD_CAT_ID": 66988, "ELEMENT_SET_NO": 999, "REV_AT_EPOCH": 37, "BSTAR": 0.00024920475, "MEAN_MOTION_DOT": 5.809e-05, "MEAN_MOTION_DDOT": 0}, "tle": {"line1": "1 66988U 25289A   25345.62394963  .00005809  00000+0  24920-3 0  9995", "line2": "2 66988  97.5268  50.7421 0000858  73.6850 286.4480 15.23120362   372"}}, "geometry": {"type": "Point", "coordinates": [44.76056970935932, 43.88655920941392]}}, {"type": "Feature", "properties": {"norad_id": 66989, "name": "CZ-4B R/B", "group": "last-30-days", "lat": -64.23979428570391, "lon": -143.598709795385, "alt_km": 418.6354188377236, "timestamp": "2025-12-12T22:42:11.308658+00:00", "meta": {"OBJECT_NAME": "CZ-4B R/B", "OBJECT_ID": "2025-289B", "EPOCH": "2025-12-12T03:15:47.798496", "MEAN_MOTION": 15.66937335, "ECCENTRICITY": 0.01502028, "INCLINATION": 97.5268, "RA_OF_ASC_NODE": 51.4361, "ARG_OF_PERICENTER": 5.1776, "MEAN_ANOMALY": 355.0994, "EPHEMERIS_TYPE": 0, "CLASSIFICATION_TYPE": "U", "NORAD_CAT_ID": 66989, "ELEMENT_SET_NO": 999, "REV_AT_EPOCH": 47, "BSTAR": 0.00078308871, "MEAN_MOTION_DOT": 0.00155612, "MEAN_MOTION_DDOT": 9.01934e-06}, "tle": {"line1": "1 66989U 25289B   25346.13596989  .00155612  90193-5  78309-3 0  9991", "line2": "2 66989  97.5268  51.4361 0150202   5.1776 355.0994 15.66937335   477"}}, "geometry": {"type": "Point", "coordinates": [-143.598709795385, -64.23979428570391]}}]}